NORAD_CAT_ID,OBJECT_NAME,OBJECT_TYPE,EPOCH,MEAN_MOTION,ECCENTRICITY,INCLINATION,RA_OF_ASC_NODE,ARG_OF_PERICENTER,MEAN_ANOMALY,BSTAR,MEAN_MOTION_DOT,MEAN_MOTION_DDOT,TLE_LINE0,TLE_LINE1,TLE_LINE2,SEMIMAJOR_AXIS,PERIOD,APOGEE,PERIGEE,DECAYED
53015.0,STARLINK-4262,PAYLOAD,2022-09-04 16:00:00,15.73371087,0.0002089,53.2165,86.9927,16.8495,39.403,-0.0062604,-0.00805661,0.0,0 STARLINK-4262,1 53015U 22076AF  22247.66667824 -.00805661  00000-0 -62604-2 0  9991,2 53015  53.2165  86.9927 0002089  16.8495  39.4030 15.73371087  9809,6727.406999999997,91.523,350.67800000000005,347.867,0.0
53015.0,STARLINK-4262,PAYLOAD,2022-09-04 20:00:01,15.72867808,0.0002354,53.2172,86.1639,19.4702,261.3126,-0.0018716999999999,-0.00252032,0.0,0 STARLINK-4262,1 53015U 22076AF  22247.83334491 -.00252032  00000-0 -18717-2 0  9995,2 53015  53.2172  86.1639 0002354  19.4702 261.3126 15.72867808  1303,6728.842,91.553,352.291,349.12300000000016,0.0
53015.0,STARLINK-4262,PAYLOAD,2022-09-05 06:00:00,15.7256934,0.0002116,53.2174,84.0959,22.5596,98.7397,-0.008581,-0.01055002,0.0,0 STARLINK-4262,1 53015U 22076AF  22248.25001157 -.01055002  00000-0 -85810-2 0  9999,2 53015  53.2174  84.0959 0002116  22.5596  98.7397 15.72569340  9893,6729.694,91.57,352.983,350.135,0.0
53015.0,STARLINK-4262,PAYLOAD,2022-09-05 14:00:01,15.71809151,0.0002188,53.2177,82.4473,23.6779,185.3265,-0.0088428,-0.01052654,0.0,0 STARLINK-4262,1 53015U 22076AF  22248.58334491 -.01052654  00000-0 -88428-2 0  9993,2 53015  53.2177  82.4473 0002188  23.6779 185.3265 15.71809151  1304,6731.863,91.614,355.201,352.256,0.0
53015.0,STARLINK-4262,PAYLOAD,2022-09-05 22:00:00,15.71075094,0.0004249,53.2174,80.808,290.6821,5.0956,-0.0093904,-0.01081354,0.0,0 STARLINK-4262,1 53015U 22076AF  22248.91667824 -.01081354  00000-0 -93904-2 0  9993,2 53015  53.2174  80.8080 0004249 290.6821   5.0956 15.71075094  1307,6733.96,91.657,358.686,352.964,0.0
53015.0,STARLINK-4262,PAYLOAD,2022-09-06 06:00:00,15.70292005,0.0002867,53.2175,79.157,326.7469,54.929,-0.0094544,-0.01055386,0.0,0 STARLINK-4262,1 53015U 22076AF  22249.25001157 -.01055386  00000-0 -94544-2 0  9999,2 53015  53.2175  79.1570 0002867 326.7469  54.9290 15.70292005 10054,6736.199000000001,91.703,359.995,356.1330000000001,0.0
53015.0,STARLINK-4262,PAYLOAD,2022-09-06 14:00:01,15.69536304,0.0004258999999999,53.2176,77.5142,343.8397,122.802,-0.0098229,-0.01062291,0.0,0 STARLINK-4262,1 53015U 22076AF  22249.58334491 -.01062291  00000-0 -98229-2 0  9992,2 53015  53.2176  77.5142 0004259 343.8397 122.8020 15.69536304  1304,6738.361,91.747,363.096,357.356,0.0
53015.0,STARLINK-4262,PAYLOAD,2022-09-06 22:00:00,15.68781858,7.57e-05,53.2172,75.87899999999998,278.4068,272.2841,-0.010209,-0.01067546,0.0,0 STARLINK-4262,1 53015U 22076AF  22249.91667824 -.01067546  00000-0 -10209-1 0  9997,2 53015  53.2172  75.8790 0000757 278.4068 272.2841 15.68781858  1303,6740.521,91.791,362.896,361.876,0.0
53015.0,STARLINK-4262,PAYLOAD,2022-09-07 04:00:00,15.68206,6.159999999999999e-05,53.2173,74.6451,88.395,74.744,-0.010367,-0.01059383,0.0,0 STARLINK-4262,1 53015U 22076AF  22250.16667824 -.01059383  00000-0 -10367-1 0  9991,2 53015  53.2173  74.6451 0000616  88.3950  74.7440 15.68206000 10195,6742.170999999999,91.825,364.451,363.621,0.0
53015.0,STARLINK-4262,PAYLOAD,2022-09-07 14:00:01,15.67262896,0.0001079,53.2169,72.6006,70.3499,285.712,-0.010846,-0.01065599,0.0,0 STARLINK-4262,1 53015U 22076AF  22250.58334491 -.01065599  00000-0 -10846-1 0  9996,2 53015  53.2169  72.6006 0001079  70.3499 285.7120 15.67262896  1303,6744.876,91.88,367.468,366.013,0.0
53015.0,STARLINK-4262,PAYLOAD,2022-09-07 22:00:00,15.66490132,0.000122,53.2176,70.9645,56.8642,20.5211,-0.010979,-0.01047262,0.0,0 STARLINK-4262,1 53015U 22076AF  22250.91667824 -.01047262  00000-0 -10979-1 0  9996,2 53015  53.2176  70.9645 0001220  56.8642  20.5211 15.66490132  1309,6747.094,91.925,369.782,368.135,0.0
53015.0,STARLINK-4262,PAYLOAD,2022-09-08 06:00:00,15.65731918,0.0001257,53.2176,69.3294,64.938,92.8517,-0.011341,-0.01048849,0.0,0 STARLINK-4262,1 53015U 22076AF  22251.25001157 -.01048849  00000-0 -11341-1 0  9991,2 53015  53.2176  69.3294 0001257  64.9380  92.8517 15.65731918 10366,6749.272,91.97,371.985,370.288,0.0
53015.0,STARLINK-4262,PAYLOAD,2022-09-08 14:00:01,15.649725699999998,0.0001226,53.2178,67.6982,73.9183,163.3621,-0.011689,-0.0104847,0.0,0 STARLINK-4262,1 53015U 22076AF  22251.58334491 -.01048470  00000-0 -11689-1 0  9992,2 53015  53.2178  67.6982 0001226  73.9183 163.3621 15.64972570  1304,6751.455,92.014,374.147,372.492,0.0
53015.0,STARLINK-4262,PAYLOAD,2022-09-08 22:00:00,15.64212312,0.000108,53.2174,66.0703,78.5632,237.2948,-0.012034,-0.01047135,0.0,0 STARLINK-4262,1 53015U 22076AF  22251.91667824 -.01047135  00000-0 -12034-1 0  9990,2 53015  53.2174  66.0703 0001080  78.5632 237.2948 15.64212312 10474,6753.642,92.059,376.236,374.778,0.0
53015.0,STARLINK-4262,PAYLOAD,2022-09-09 14:00:01,15.62694388,0.0001283,53.2174,62.815,59.0749,51.2026,-0.012799,-0.01064833,0.0,0 STARLINK-4262,1 53015U 22076AF  22252.58334491 -.01064833  00000-0 -12799-1 0  9997,2 53015  53.2174  62.8150 0001283  59.0749  51.2026 15.62694388  1300,6758.015,92.149,380.747,379.013,0.0
53015.0,STARLINK-4262,PAYLOAD,2022-09-09 22:00:00,15.61929712,0.0001343,53.2174,61.1926,59.3887,126.7301,-0.013066,-0.01055791,0.0,0 STARLINK-4262,1 53015U 22076AF  22252.91667824 -.01055791  00000-0 -13066-1 0  9994,2 53015  53.2174  61.1926 0001343  59.3887 126.7301 15.61929712  1301,6760.22,92.194,382.99300000000005,381.177,0.0
53015.0,STARLINK-4262,PAYLOAD,2022-09-10 14:00:01,15.60416885,0.0001155,53.2176,57.9484,60.5152,274.545,-0.014002,-0.0106576,0.0,0 STARLINK-4262,1 53015U 22076AF  22253.58334491 -.01065760  00000-0 -14002-1 0  9997,2 53015  53.2176  57.9484 0001155  60.5152 274.5450 15.60416885 10730,6764.589,92.283,387.235,385.673,0.0
53015.0,STARLINK-4262,PAYLOAD,2022-09-10 22:00:00,15.59654046,0.0001319,53.2173,56.3312,46.3802,1.7829,-0.01433,-0.0105977,0.0,0 STARLINK-4262,1 53015U 22076AF  22253.91667824 -.01059770  00000-0 -14330-1 0  9991,2 53015  53.2173  56.3312 0001319  46.3802   1.7829 15.59654046  1300,6766.795,92.328,389.552,387.767,0.0
53015.0,STARLINK-4262,PAYLOAD,2022-09-11 14:00:01,15.58135581,0.0001440999999999,53.2176,53.0984,54.9505,136.6801,-0.0151949999999999,-0.01060428,0.0,0 STARLINK-4262,1 53015U 22076AF  22254.58334491 -.01060428  00000-0 -15195-1 0  9998,2 53015  53.2176  53.0984 0001441  54.9505 136.6801 15.58135581 10892,6771.19,92.418,394.031,392.079,0.0
53015.0,STARLINK-4262,PAYLOAD,2022-09-11 22:00:00,15.57374705,0.0001348,53.2172,51.4866,53.3275,208.6669,-0.015588,-0.01057266,0.0,0 STARLINK-4262,1 53015U 22076AF  22254.91667824 -.01057266  00000-0 -15588-1 0  9996,2 53015  53.2172  51.4866 0001348  53.3275 208.6669 15.57374705  1302,6773.395,92.463,396.173,394.347,0.0
53015.0,STARLINK-4262,PAYLOAD,2022-09-12 12:00:00,15.56048547,0.0001320999999999,53.2174,48.6664,53.8259,239.1102,-0.016462,-0.01061885,0.0,0 STARLINK-4262,1 53015U 22076AF  22255.50001157 -.01061885  00000-0 -16462-1 0  9997,2 53015  53.2174  48.6664 0001321  53.8259 239.1102 15.56048547 11039,6777.243,92.542,400.004,398.213,0.0
53015.0,STARLINK-4262,PAYLOAD,2022-09-12 14:00:01,15.55859321,0.0001389,53.2174,48.2648,44.0988,355.8862,-0.016609,-0.01063677,0.0,0 STARLINK-4262,1 53015U 22076AF  22255.58334491 -.01063677  00000-0 -16609-1 0  9999,2 53015  53.2174  48.2648 0001389  44.0988 355.8862 15.55859321  1309,6777.793000000002,92.553,400.599,398.716,0.0
53015.0,STARLINK-4262,PAYLOAD,2022-09-12 22:00:00,15.55105541,0.0001585,53.2167,46.6599,40.5941,67.0118,-0.0171729999999999,-0.01068955,0.0,0 STARLINK-4262,1 53015U 22076AF  22255.91667824 -.01068955  00000-0 -17173-1 0  9996,2 53015  53.2167  46.6599 0001585  40.5941  67.0118 15.55105541  1300,6779.983,92.598,402.922,400.773,0.0
53015.0,STARLINK-4262,PAYLOAD,2022-09-13 06:00:00,15.54336775,0.0001514,53.2173,45.0506,47.6614,126.6656,-0.017455,-0.01057209,0.0,0 STARLINK-4262,1 53015U 22076AF  22256.25001157 -.01057209  00000-0 -17455-1 0  9998,2 53015  53.2173  45.0506 0001514  47.6614 126.6656 15.54336775 11141,6782.218000000003,92.644,405.11,403.056,0.0
53015.0,STARLINK-4262,PAYLOAD,2022-09-13 14:00:01,15.53577923,0.0001496999999999,53.2176,43.4478,50.3598,189.7673,-0.017962,-0.01057934,0.0,0 STARLINK-4262,1 53015U 22076AF  22256.58334491 -.01057934  00000-0 -17962-1 0  9992,2 53015  53.2176  43.4478 0001497  50.3598 189.7673 15.53577923  1303,6784.427,92.689,407.307,405.276,0.0
53015.0,STARLINK-4262,PAYLOAD,2022-09-13 22:00:00,15.52820122,0.0001449,53.2172,41.8465,41.9633,263.051,-0.018501,-0.01059743,0.0,0 STARLINK-4262,1 53015U 22076AF  22256.91667824 -.01059743  00000-0 -18501-1 0  9998,2 53015  53.2172  41.8465 0001449  41.9633 263.0510 15.52820122  1307,6786.634,92.735,409.482,407.515,0.0
53015.0,STARLINK-4262,PAYLOAD,2022-09-14 06:00:00,15.52058387,0.0001158,53.2174,40.2443,54.9119,314.0806,-0.018975,-0.01057388,0.0,0 STARLINK-4262,1 53015U 22076AF  22257.25001157 -.01057388  00000-0 -18975-1 0  9995,2 53015  53.2174  40.2443 0001158  54.9119 314.0806 15.52058387 11300,6788.854,92.78,411.505,409.9330000000001,0.0
53015.0,STARLINK-4262,PAYLOAD,2022-09-14 14:00:01,15.51316136,0.0001328,53.2175,38.6484,48.746,23.3002,-0.019994,-0.01082231,0.0,0 STARLINK-4262,1 53015U 22076AF  22257.58334491 -.01082231  00000-0 -19994-1 0  9998,2 53015  53.2175  38.6484 0001328  48.7460  23.3002 15.51316136  1301,6791.019,92.824,413.786,411.983,0.0
53015.0,STARLINK-4262,PAYLOAD,2022-09-14 22:00:00,15.50465075,0.0001653,53.2166,37.0534,28.9739,105.2167,-0.012269,-0.00654839,0.0,0 STARLINK-4262,1 53015U 22076AF  22257.91667824 -.00654839  00000-0 -12269-1 0  9990,2 53015  53.2166  37.0534 0001653  28.9739 105.2167 15.50465075  1308,6793.504,92.875,416.492,414.246,0.0
